{
  "type": "FeatureCollection",
  "features": [
    {
      "type": "Feature",
      "properties": {
        "norad_id": 26766,
        "name": "INTELSAT 10 (IS-10)",
        "group": "intelsat",
        "lat": -8.634552762418952,
        "lon": -29.093757619616234,
        "alt_km": 36101.998197216,
        "timestamp": "2025-12-11T07:02:23.401151+00:00",
        "meta_object_name": "INTELSAT 10 (IS-10)",
        "meta_object_id": "2001-019A",
        "meta_epoch": "2025-12-10T14:14:44.567232",
        "meta_mean_motion": 0.99078928,
        "meta_eccentricity": 0.00078121,
        "meta_inclination": 8.625,
        "meta_ra_of_asc_node": 61.1789,
        "meta_arg_of_pericenter": 223.6466,
        "meta_mean_anomaly": 156.4185,
        "meta_ephemeris_type": 0,
        "meta_classification_type": "U",
        "meta_norad_cat_id": 26766,
        "meta_element_set_no": 999,
        "meta_rev_at_epoch": 4371,
        "meta_bstar": 0,
        "meta_mean_motion_dot": -2.88e-06,
        "meta_mean_motion_ddot": 0,
        "tle_line1": "1 26766U 01019A   25344.59357138 -.00000288  00000+0  00000+0 0  9994",
        "tle_line2": "2 26766   8.6250  61.1789 0007812 223.6466 156.4185  0.99078928 43716"
      },
      "geometry": {
        "type": "Point",
        "coordinates": [
          -29.093757619616234,
          -8.634552762418952
        ]
      }
    },
    {
      "type": "Feature",
      "properties": {
        "norad_id": 26900,
        "name": "INTELSAT 902 (IS-902)",
        "group": "intelsat",
        "lat": 4.9681504134416965,
        "lon": 135.4740924389445,
        "alt_km": 35794.27918292166,
        "timestamp": "2025-12-11T07:02:23.401176+00:00",
        "meta_object_name": "INTELSAT 902 (IS-902)",
        "meta_object_id": "2001-039A",
        "meta_epoch": "2025-12-01T16:59:59.311968",
        "meta_mean_motion": 1.00270327,
        "meta_eccentricity": 0.00043097,
        "meta_inclination": 5.6187,
        "meta_ra_of_asc_node": 74.2002,
        "meta_arg_of_pericenter": 175.119,
        "meta_mean_anomaly": 26.3816,
        "meta_ephemeris_type": 0,
        "meta_classification_type": "U",
        "meta_norad_cat_id": 26900,
        "meta_element_set_no": 999,
        "meta_rev_at_epoch": 8871,
        "meta_bstar": 0,
        "meta_mean_motion_dot": -2.63e-06,
        "meta_mean_motion_ddot": 0,
        "tle_line1": "1 26900U 01039A   25335.70832537 -.00000263  00000+0  00000+0 0  9993",
        "tle_line2": "2 26900   5.6187  74.2002 0004309 175.1190  26.3816  1.00270327 88713"
      },
      "geometry": {
        "type": "Point",
        "coordinates": [
          135.4740924389445,
          4.9681504134416965
        ]
      }
    },
    {
      "type": "Feature",
      "properties": {
        "norad_id": 27380,
        "name": "INTELSAT 904 (IS-904)",
        "group": "intelsat",
        "lat": 6.407585844137096,
        "lon": 154.29007945199146,
        "alt_km": 35789.668376209505,
        "timestamp": "2025-12-11T07:02:23.401193+00:00",
        "meta_object_name": "INTELSAT 904 (IS-904)",
        "meta_object_id": "2002-007A",
        "meta_epoch": "2025-12-10T15:06:12.321792",
        "meta_mean_motion": 1.00272927,
        "meta_eccentricity": 0.00015123,
        "meta_inclination": 6.4498,
        "meta_ra_of_asc_node": 71.4559,
        "meta_arg_of_pericenter": 220.2282,
        "meta_mean_anomaly": 342.9563,
        "meta_ephemeris_type": 0,
        "meta_classification_type": "U",
        "meta_norad_cat_id": 27380,
        "meta_element_set_no": 999,
        "meta_rev_at_epoch": 4987,
        "meta_bstar": 0,
        "meta_mean_motion_dot": -2.22e-06,
        "meta_mean_motion_ddot": 0,
        "tle_line1": "1 27380U 02007A   25344.62930928 -.00000222  00000+0  00000+0 0  9991",
        "tle_line2": "2 27380   6.4498  71.4559 0001512 220.2282 342.9563  1.00272927 49871"
      },
      "geometry": {
        "type": "Point",
        "coordinates": [
          154.29007945199146,
          6.407585844137096
        ]
      }
    },
    {
      "type": "Feature",
      "properties": {
        "norad_id": 27426,
        "name": "DIRECTV 5 (TEMPO 1)",
        "group": "intelsat",
        "lat": -0.12950141237590856,
        "lon": 75.74335475996949,
        "alt_km": 35800.636608369205,
        "timestamp": "2025-12-11T07:02:23.401207+00:00",
        "meta_object_name": "DIRECTV 5 (TEMPO 1)",
        "meta_object_id": "2002-023A",
        "meta_epoch": "2025-12-10T16:26:33.605088",
        "meta_mean_motion": 1.00271765,
        "meta_eccentricity": 0.000355,
        "meta_inclination": 4.3972,
        "meta_ra_of_asc_node": 77.6756,
        "meta_arg_of_pericenter": 192.8053,
        "meta_mean_anomaly": 305.6907,
        "meta_ephemeris_type": 0,
        "meta_classification_type": "U",
        "meta_norad_cat_id": 27426,
        "meta_element_set_no": 999,
        "meta_rev_at_epoch": 8623,
        "meta_bstar": 0,
        "meta_mean_motion_dot": -5.3e-07,
        "meta_mean_motion_ddot": 0,
        "tle_line1": "1 27426U 02023A   25344.68511117 -.00000053  00000+0  00000+0 0  9993",
        "tle_line2": "2 27426   4.3972  77.6756 0003550 192.8053 305.6907  1.00271765 86235"
      },
      "geometry": {
        "type": "Point",
        "coordinates": [
          75.74335475996949,
          -0.12950141237590856
        ]
      }
    },
    {
      "type": "Feature",
      "properties": {
        "norad_id": 27438,
        "name": "INTELSAT 905 (IS-905)",
        "group": "intelsat",
        "lat": -2.4761872805095635,
        "lon": 48.795933091571285,
        "alt_km": 35795.66610149142,
        "timestamp": "2025-12-11T07:02:23.401220+00:00",
        "meta_object_name": "INTELSAT 905 (IS-905)",
        "meta_object_id": "2002-027A",
        "meta_epoch": "2025-12-10T10:38:24.492192",
        "meta_mean_motion": 1.00272307,
        "meta_eccentricity": 0.00027995,
        "meta_inclination": 6.2803,
        "meta_ra_of_asc_node": 72.0822,
        "meta_arg_of_pericenter": 193.4676,
        "meta_mean_anomaly": 196.2661,
        "meta_ephemeris_type": 0,
        "meta_classification_type": "U",
        "meta_norad_cat_id": 27438,
        "meta_element_set_no": 999,
        "meta_rev_at_epoch": 4947,
        "meta_bstar": 0,
        "meta_mean_motion_dot": 9.7e-07,
        "meta_mean_motion_ddot": 0,
        "tle_line1": "1 27438U 02027A   25344.44333903  .00000097  00000+0  00000+0 0  9996",
        "tle_line2": "2 27438   6.2803  72.0822 0002799 193.4676 196.2661  1.00272307 49476"
      },
      "geometry": {
        "type": "Point",
        "coordinates": [
          48.795933091571285,
          -2.4761872805095635
        ]
      }
    },
    {
      "type": "Feature",
      "properties": {
        "norad_id": 27445,
        "name": "GALAXY 3C (G-3C)",
        "group": "intelsat",
        "lat": 0.6096564339469708,
        "lon": 90.95735362405095,
        "alt_km": 35785.80652801578,
        "timestamp": "2025-12-11T07:02:23.401233+00:00",
        "meta_object_name": "GALAXY 3C (G-3C)",
        "meta_object_id": "2002-030A",
        "meta_epoch": "2025-12-10T12:09:57.138912",
        "meta_mean_motion": 1.00271053,
        "meta_eccentricity": 0.000111,
        "meta_inclination": 3.259,
        "meta_ra_of_asc_node": 80.5266,
        "meta_arg_of_pericenter": 95.032,
        "meta_mean_anomaly": 351.5472,
        "meta_ephemeris_type": 0,
        "meta_classification_type": "U",
        "meta_norad_cat_id": 27445,
        "meta_element_set_no": 999,
        "meta_rev_at_epoch": 4460,
        "meta_bstar": 0,
        "meta_mean_motion_dot": -1.49e-06,
        "meta_mean_motion_ddot": 0,
        "tle_line1": "1 27445U 02030A   25344.50691133 -.00000149  00000+0  00000+0 0  9996",
        "tle_line2": "2 27445   3.2590  80.5266 0001110  95.0320 351.5472  1.00271053 44602"
      },
      "geometry": {
        "type": "Point",
        "coordinates": [
          90.95735362405095,
          0.6096564339469708
        ]
      }
    },
    {
      "type": "Feature",
      "properties": {
        "norad_id": 27513,
        "name": "INTELSAT 906 (IS-906)",
        "group": "intelsat",
        "lat": 0.47136072527697476,
        "lon": -110.00939271655432,
        "alt_km": 35761.229482261675,
        "timestamp": "2025-12-11T07:02:23.401245+00:00",
        "meta_object_name": "INTELSAT 906 (IS-906)",
        "meta_object_id": "2002-041A",
        "meta_epoch": "2025-12-10T20:41:42.470304",
        "meta_mean_motion": 1.00271229,
        "meta_eccentricity": 0.00061429,
        "meta_inclination": 5.324,
        "meta_ra_of_asc_node": 75.2537,
        "meta_arg_of_pericenter": 191.2256,
        "meta_mean_anomaly": 187.9112,
        "meta_ephemeris_type": 0,
        "meta_classification_type": "U",
        "meta_norad_cat_id": 27513,
        "meta_element_set_no": 999,
        "meta_rev_at_epoch": 8514,
        "meta_bstar": 0,
        "meta_mean_motion_dot": 1.7e-07,
        "meta_mean_motion_ddot": 0,
        "tle_line1": "1 27513U 02041A   25344.86229711  .00000017  00000+0  00000+0 0  9995",
        "tle_line2": "2 27513   5.3240  75.2537 0006142 191.2256 187.9112  1.00271229 85143"
      },
      "geometry": {
        "type": "Point",
        "coordinates": [
          -110.00939271655432,
          0.47136072527697476
        ]
      }
    }
  ]
}